OBJECT_NAME,OBJECT_ID,EPOCH,MEAN_MOTION,ECCENTRICITY,INCLINATION,RA_OF_ASC_NODE,ARG_OF_PERICENTER,MEAN_ANOMALY,EPHEMERIS_TYPE,CLASSIFICATION_TYPE,NORAD_CAT_ID,ELEMENT_SET_NO,REV_AT_EPOCH,BSTAR,MEAN_MOTION_DOT,MEAN_MOTION_DDOT
ONEWEB-0398,2021-132K,2026-07-13T10:58:22.950048,13.11417226,.0002193,87.8889,15.8281,89.6132,270.5247,0,U,50478,999,21905,-.14705E-2,-.508E-5,0
ONEWEB-0399,2021-132L,2026-07-13T10:38:51.493056,13.11414915,.000157,87.8886,15.8414,76.8772,283.2531,0,U,50479,999,21904,-.84185E-3,-.286E-5,0
ONEWEB-0400,2021-132M,2026-07-13T09:55:49.119744,13.18684712,.0002054,87.9195,330.2300,96.5171,263.6195,0,U,50480,999,22506,.42102E-4,.3E-6,0
ONEWEB-0401,2021-132N,2026-07-13T09:12:07.756704,13.18686948,.0001754,87.9200,330.2328,105.9517,254.1808,0,U,50481,999,22506,.1459E-3,.7E-6,0
ONEWEB-0402,2021-132P,2026-07-13T10:07:57.722304,13.18686881,.0001516,87.9194,330.2142,109.9027,250.2269,0,U,50482,999,22509,-.89014E-4,-.22E-6,0
ONEWEB-0403,2021-132Q,2026-07-13T10:44:23.676864,13.18686632,.0001842,87.9189,330.2348,93.2570,266.8773,0,U,50483,999,22505,.20522E-3,.94E-6,0
ONEWEB-0404,2021-132R,2026-07-13T12:01:52.433184,13.11415559,.0001869,87.8882,15.8273,80.3548,279.7791,0,U,50484,999,21914,.14063E-2,.511E-5,0
ONEWEB-0405,2021-132S,2026-07-13T09:14:32.936352,13.18684757,.000236,87.9199,330.2313,99.7295,260.4104,0,U,50485,999,22544,-.65825E-4,-.13E-6,0
ONEWEB-0406,2021-132T,2026-07-13T09:02:24.631872,13.18693675,.0001713,87.9197,330.2480,80.2540,279.8786,0,U,50486,999,22507,-.3497E-2,-.1366E-4,0
ONEWEB-0407,2021-132U,2026-07-13T10:41:56.704416,13.18687585,.0001898,87.9199,330.2268,105.3197,254.8144,0,U,50487,999,22502,-.36699E-3,-.132E-5,0
ONEWEB-0409,2021-132V,2026-07-13T11:59:26.380896,13.11415652,.0001954,87.8890,15.8169,82.7474,277.3876,0,U,50488,999,21903,.1499E-2,.544E-5,0
ONEWEB-0412,2021-132W,2026-07-13T08:35:42.133056,13.18686876,.0001644,87.9197,330.2517,105.7455,254.3858,0,U,50489,999,22510,.19808E-3,.91E-6,0
ONEWEB-0413,2021-132X,2026-07-13T10:32:14.823744,13.18687445,.0001782,87.9184,330.2331,107.9218,252.2109,0,U,50490,999,22505,-.62563E-4,-.12E-6,0
ONEWEB-0414,2021-132Y,2026-07-13T10:10:23.807424,13.18686598,.0001711,87.9194,330.2207,98.5105,261.6221,0,U,50491,999,22508,.4254E-4,.3E-6,0
ONEWEB-0417,2021-132Z,2026-07-13T08:33:16.199136,13.18686807,.000188,87.9186,330.2513,91.4676,268.6671,0,U,50492,999,22505,.33689E-5,.14E-6,0
ONEWEB-0418,2021-132AA,2026-07-13T10:36:54.136800,13.18685810,.0001898,87.9194,330.2349,92.7224,267.4125,0,U,50493,999,22512,.12483E-4,.18E-6,0
ONEWEB-0419,2021-132AB,2026-07-13T11:04:15.718656,13.18666215,.0002098,87.9196,330.2319,93.6684,266.4688,0,U,50494,999,22504,-.95522E-5,.9E-7,0
ONEWEB-0420,2021-132AC,2026-07-13T10:12:48.172320,13.18687527,.0001966,87.9186,330.2399,103.8632,256.2718,0,U,50495,999,22503,-.22202E-4,.4E-7,0
ONEWEB-0421,2021-132AD,2026-07-13T10:03:07.708608,13.18685719,.0001502,87.9187,330.2393,99.3117,260.8185,0,U,50496,999,22507,.8419E-4,.46E-6,0
ONEWEB-0424,2021-132AE,2026-07-13T09:07:16.339872,13.18686844,.0002204,87.9197,330.2462,94.1844,265.9540,0,U,50497,999,22509,-.3871E-4,-.2E-7,0
ONEWEB-0426,2021-132AF,2026-07-13T09:57:02.932128,13.18686029,.0001425,87.9196,330.2309,80.1977,279.9316,0,U,50498,999,22504,.15803E-3,.75E-6,0
ONEWEB-0427,2021-132AG,2026-07-13T10:54:06.445728,13.18687215,.0001834,87.9195,330.2121,91.7514,268.3828,0,U,50499,999,22507,.28641E-4,.24E-6,0
ONEWEB-0429,2021-132AH,2026-07-13T10:34:39.867744,13.18687292,.0001901,87.9188,330.2369,102.2045,257.9300,0,U,50500,999,22504,.50788E-4,.33E-6,0
ONEWEB-0430,2021-132AJ,2026-07-13T10:17:40.079040,13.18688193,.0002052,87.9188,330.2388,102.9398,257.1963,0,U,50501,999,22508,.5543E-4,.35E-6,0
ONEWEB-0432,2021-132AK,2026-07-13T08:03:56.994912,13.18686150,.0002311,87.9195,330.2422,97.8101,262.3293,0,U,50502,999,22502,.43412E-4,.3E-6,0
ONEWEB-0440,2021-132AL,2026-07-13T08:57:32.959296,13.18687010,.0001652,87.9196,330.2469,106.6712,253.4601,0,U,50503,999,22502,.19767E-4,.21E-6,0
ONEWEB-0450,2021-132AM,2026-07-13T08:48:02.415168,13.18686744,.0001988,87.9186,330.2509,104.5878,255.5475,0,U,50504,999,22505,.86338E-5,.16E-6,0
ONEWEB-0410,2022-012A,2026-07-13T11:47:18.582720,13.17650554,.0001899,87.9153,0.6265,52.2331,307.8972,0,U,51622,999,21716,.14731E-4,.19E-6,0
ONEWEB-0411,2022-012B,2026-07-13T12:13:31.442880,13.10377606,.0002266,87.8823,31.0222,95.7670,264.3716,0,U,51623,999,21273,-.10177E-2,-.343E-5,0
ONEWEB-0415,2022-012C,2026-07-13T12:08:37.388256,13.10377464,.0002131,87.8824,31.0216,87.5987,272.5385,0,U,51624,999,21273,-.1327E-2,-.451E-5,0
ONEWEB-0416,2022-012D,2026-07-13T10:35:47.959584,13.10377632,.0002194,87.8815,31.0507,84.0763,276.0615,0,U,51625,999,21276,.27972E-3,.11E-5,0
