ONEWEB-0398             
1 50478U 21132K   26194.45721007 -.00000508  00000+0 -14705-2 0  9994
2 50478  87.8889  15.8281 0002193  89.6132 270.5247 13.11417226219055
ONEWEB-0399             
1 50479U 21132L   26194.44365154 -.00000286  00000+0 -84185-3 0  9994
2 50479  87.8886  15.8414 0001570  76.8772 283.2531 13.11414915219045
ONEWEB-0400             
1 50480U 21132M   26194.41376296  .00000030  00000+0  42102-4 0  9991
2 50480  87.9195 330.2300 0002054  96.5171 263.6195 13.18684712225067
ONEWEB-0401             
1 50481U 21132N   26194.38342311  .00000070  00000+0  14590-3 0  9992
2 50481  87.9200 330.2328 0001754 105.9517 254.1808 13.18686948225069
ONEWEB-0402             
1 50482U 21132P   26194.42219586 -.00000022  00000+0 -89014-4 0  9998
2 50482  87.9194 330.2142 0001516 109.9027 250.2269 13.18686881225099
ONEWEB-0403             
1 50483U 21132Q   26194.44749626  .00000094  00000+0  20522-3 0  9999
2 50483  87.9189 330.2348 0001842  93.2570 266.8773 13.18686632225055
ONEWEB-0404             
1 50484U 21132R   26194.50130131  .00000511  00000+0  14063-2 0  9998
2 50484  87.8882  15.8273 0001869  80.3548 279.7791 13.11415559219146
ONEWEB-0405             
1 50485U 21132S   26194.38510343 -.00000013  00000+0 -65825-4 0  9995
2 50485  87.9199 330.2313 0002360  99.7295 260.4104 13.18684757225448
ONEWEB-0406             
1 50486U 21132T   26194.37667398 -.00001366  00000+0 -34970-2 0  9995
2 50486  87.9197 330.2480 0001713  80.2540 279.8786 13.18693675225079
ONEWEB-0407             
1 50487U 21132U   26194.44579519 -.00000132  00000+0 -36699-3 0  9992
2 50487  87.9199 330.2268 0001898 105.3197 254.8144 13.18687585225026
ONEWEB-0409             
1 50488U 21132V   26194.49961089  .00000544  00000+0  14990-2 0  9999
2 50488  87.8890  15.8169 0001954  82.7474 277.3876 13.11415652219032
ONEWEB-0412             
1 50489U 21132W   26194.35812654  .00000091  00000+0  19808-3 0  9999
2 50489  87.9197 330.2517 0001644 105.7455 254.3858 13.18686876225101
ONEWEB-0413             
1 50490U 21132X   26194.43906046 -.00000012  00000+0 -62563-4 0  9991
2 50490  87.9184 330.2331 0001782 107.9218 252.2109 13.18687445225050
ONEWEB-0414             
1 50491U 21132Y   26194.42388666  .00000030  00000+0  42540-4 0  9994
2 50491  87.9194 330.2207 0001711  98.5105 261.6221 13.18686598225086
ONEWEB-0417             
1 50492U 21132Z   26194.35643749  .00000014  00000+0  33689-5 0  9990
2 50492  87.9186 330.2513 0001880  91.4676 268.6671 13.18686807225056
ONEWEB-0418             
1 50493U 21132AA  26194.44229325  .00000018  00000+0  12483-4 0  9993
2 50493  87.9194 330.2349 0001898  92.7224 267.4125 13.18685810225127
ONEWEB-0419             
1 50494U 21132AB  26194.46129304  .00000009  00000+0 -95522-5 0  9999
2 50494  87.9196 330.2319 0002098  93.6684 266.4688 13.18666215225042
ONEWEB-0420             
1 50495U 21132AC  26194.42555755  .00000004  00000+0 -22202-4 0  9998
2 50495  87.9186 330.2399 0001966 103.8632 256.2718 13.18687527225039
ONEWEB-0421             
1 50496U 21132AD  26194.41883922  .00000046  00000+0  84190-4 0  9997
2 50496  87.9187 330.2393 0001502  99.3117 260.8185 13.18685719225072
ONEWEB-0424             
1 50497U 21132AE  26194.38005023 -.00000002  00000+0 -38710-4 0  9993
2 50497  87.9197 330.2462 0002204  94.1844 265.9540 13.18686844225094
ONEWEB-0426             
1 50498U 21132AF  26194.41461727  .00000075  00000+0  15803-3 0  9990
2 50498  87.9196 330.2309 0001425  80.1977 279.9316 13.18686029225046
ONEWEB-0427             
1 50499U 21132AG  26194.45424127  .00000024  00000+0  28641-4 0  9997
2 50499  87.9195 330.2121 0001834  91.7514 268.3828 13.18687215225078
ONEWEB-0429             
1 50500U 21132AH  26194.44073921  .00000033  00000+0  50788-4 0  9998
2 50500  87.9188 330.2369 0001901 102.2045 257.9300 13.18687292225040
ONEWEB-0430             
1 50501U 21132AJ  26194.42893610  .00000035  00000+0  55430-4 0  9993
2 50501  87.9188 330.2388 0002052 102.9398 257.1963 13.18688193225080
ONEWEB-0432             
1 50502U 21132AK  26194.33607633  .00000030  00000+0  43412-4 0  9994
2 50502  87.9195 330.2422 0002311  97.8101 262.3293 13.18686150225029
ONEWEB-0440             
1 50503U 21132AL  26194.37329814  .00000021  00000+0  19767-4 0  9997
2 50503  87.9196 330.2469 0001652 106.6712 253.4601 13.18687010225026
ONEWEB-0450             
1 50504U 21132AM  26194.36669462  .00000016  00000+0  86338-5 0  9996
2 50504  87.9186 330.2509 0001988 104.5878 255.5475 13.18686744225051
ONEWEB-0410             
1 51622U 22012A   26194.49118730  .00000019  00000+0  14731-4 0  9997
2 51622  87.9153   0.6265 0001899  52.2331 307.8972 13.17650554217163
ONEWEB-0411             
1 51623U 22012B   26194.50939170 -.00000343  00000+0 -10177-2 0  9999
2 51623  87.8823  31.0222 0002266  95.7670 264.3716 13.10377606212733
ONEWEB-0415             
1 51624U 22012C   26194.50598829 -.00000451  00000+0 -13270-2 0  9999
2 51624  87.8824  31.0216 0002131  87.5987 272.5385 13.10377464212734
ONEWEB-0416             
1 51625U 22012D   26194.44152731  .00000110  00000+0  27972-3 0  9996
2 51625  87.8815  31.0507 0002194  84.0763 276.0615 13.10377632212766
